[
    {
        "Altitude(m)": 604234.5921201782,
        "Argument of Periapsis(deg)": 0.0,
        "Eccentricity": 0.0,
        "Inclination(deg)": 60.0,
        "Latitude(deg)": 14.117138193592613,
        "Longitude(deg)": -48.27268572374666,
        "Mean Anomaly(deg)": -196.36359999999996,
        "RAAN(deg)": 240.0,
        "Satellite Name": "Test1 1066",
        "Satellite Number": 1066,
        "Semi-Major Axis(m)": 6980739.136638005,
        "Time(s)": 0
    },
    {
        "Altitude(m)": 604223.4213319024,
        "Argument of Periapsis(deg)": 0.00010418945913296404,
        "Eccentricity": 0.0,
        "Inclination(deg)": 60.0,
        "Latitude(deg)": 13.582274821289372,
        "Longitude(deg)": -47.985776150087254,
        "Mean Anomaly(deg)": -195.7434938545382,
        "RAAN(deg)": 239.99957995086024,
        "Satellite Name": "Test1 1066",
        "Satellite Number": 1066,
        "Semi-Major Axis(m)": 6980739.136638005,
        "Time(s)": 10
    }
]